[{"OBJECT_NAME":"STARLINK-5113","OBJECT_ID":"2022-125AA","EPOCH":"2024-07-16T20:15:30.808512","MEAN_MOTION":15.08855319,"ECCENTRICITY":0.0001222,"INCLINATION":53.2178,"RA_OF_ASC_NODE":31.5399,"ARG_OF_PERICENTER":88.2088,"MEAN_ANOMALY":271.9044,"EPHEMERIS_TYPE":0,"CLASSIFICATION_TYPE":"U","NORAD_CAT_ID":53988,"ELEMENT_SET_NO":999,"REV_AT_EPOCH":9874,"BSTAR":0.0003828,"MEAN_MOTION_DOT":5.812e-5,"MEAN_MOTION_DDOT":0},{"OBJECT_NAME":"STARLINK-5115","OBJECT_ID":"2022-125AB","EPOCH":"2024-07-16T18:34:49.673856","MEAN_MOTION":15.08837909,"ECCENTRICITY":0.0001163,"INCLINATION":53.2181,"RA_OF_ASC_NODE":31.8168,"ARG_OF_PERICENTER":80.5736,"MEAN_ANOMALY":279.5387,"EPHEMERIS_TYPE":0,"CLASSIFICATION_TYPE":"U","NORAD_CAT_ID":53989,"ELEMENT_SET_NO":999,"REV_AT_EPOCH":9874,"BSTAR":2.6913e-5,"MEAN_MOTION_DOT":1.41e-6,"MEAN_MOTION_DDOT":0},{"OBJECT_NAME":"STARLINK-5075","OBJECT_ID":"2022-125AC","EPOCH":"2024-07-16T16:25:03.543456","MEAN_MOTION":15.38098951,"ECCENTRICITY":0.0001035,"INCLINATION":53.2165,"RA_OF_ASC_NODE":27.0507,"ARG_OF_PERICENTER":89.2234,"MEAN_ANOMALY":270.889,"EPHEMERIS_TYPE":0,"CLASSIFICATION_TYPE":"U","NORAD_CAT_ID":53990,"ELEMENT_SET_NO":999,"REV_AT_EPOCH":9879,"BSTAR":3.6509e-5,"MEAN_MOTION_DOT":9.97e-6,"MEAN_MOTION_DDOT":0},{"OBJECT_NAME":"STARLINK-5118","OBJECT_ID":"2022-125AD","EPOCH":"2024-07-16T19:55:36.677568","MEAN_MOTION":15.08848759,"ECCENTRICITY":0.0001567,"INCLINATION":53.2181,"RA_OF_ASC_NODE":21.4179,"ARG_OF_PERICENTER":80.9001,"MEAN_ANOMALY":279.2168,"EPHEMERIS_TYPE":0,"CLASSIFICATION_TYPE":"U","NORAD_CAT_ID":53991,"ELEMENT_SET_NO":999,"REV_AT_EPOCH":9896,"BSTAR":-1.6289e-5,"MEAN_MOTION_DOT":-5.47e-6,"MEAN_MOTION_DDOT":0},{"OBJECT_NAME":"STARLINK-5108","OBJECT_ID":"2022-125AE","EPOCH":"2024-07-16T19:59:35.580480","MEAN_MOTION":15.088503,"ECCENTRICITY":0.0001485,"INCLINATION":53.2181,"RA_OF_ASC_NODE":31.4706,"ARG_OF_PERICENTER":93.0951,"MEAN_ANOMALY":267.0211,"EPHEMERIS_TYPE":0,"CLASSIFICATION_TYPE":"U","NORAD_CAT_ID":53992,"ELEMENT_SET_NO":999,"REV_AT_EPOCH":9882,"BSTAR":5.5075e-5,"MEAN_MOTION_DOT":5.89e-6,"MEAN_MOTION_DDOT":0},{"OBJECT_NAME":"STARLINK-5121","OBJECT_ID":"2022-125AF","EPOCH":"2024-07-17T04:58:05.198304","MEAN_MOTION":15.0886344,"ECCENTRICITY":0.0001255,"INCLINATION":53.218,"RA_OF_ASC_NODE":24.5459,"ARG_OF_PERICENTER":84.3433,"MEAN_ANOMALY":275.7703,"EPHEMERIS_TYPE":0,"CLASSIFICATION_TYPE":"U","NORAD_CAT_ID":53993,"ELEMENT_SET_NO":999,"REV_AT_EPOCH":9895,"BSTAR":0.00093509,"MEAN_MOTION_DOT":0.00014635,"MEAN_MOTION_DDOT":0},{"OBJECT_NAME":"STARLINK-5125","OBJECT_ID":"2022-125AG","EPOCH":"2024-07-16T22:54:27.294048","MEAN_MOTION":15.08843455,"ECCENTRICITY":0.0001302,"INCLINATION":53.2175,"RA_OF_ASC_NODE":30.8051,"ARG_OF_PERICENTER":100.4234,"MEAN_ANOMALY":259.6905,"EPHEMERIS_TYPE":0,"CLASSIFICATION_TYPE":"U","NORAD_CAT_ID":53994,"ELEMENT_SET_NO":999,"REV_AT_EPOCH":9884,"BSTAR":0.00019161,"MEAN_MOTION_DOT":2.763e-5,"MEAN_MOTION_DDOT":0},{"OBJECT_NAME":"STARLINK-5097","OBJECT_ID":"2022-125AH","EPOCH":"2024-07-16T19:54:17.587872","MEAN_MOTION":15.08848617,"ECCENTRICITY":0.0001442,"INCLINATION":53.218,"RA_OF_ASC_NODE":31.454,"ARG_OF_PERICENTER":94.7145,"MEAN_ANOMALY":265.4012,"EPHEMERIS_TYPE":0,"CLASSIFICATION_TYPE":"U","NORAD_CAT_ID":53995,"ELEMENT_SET_NO":999,"REV_AT_EPOCH":9874,"BSTAR":0.00024241,"MEAN_MOTION_DOT":3.573e-5,"MEAN_MOTION_DDOT":0},{"OBJECT_NAME":"STARLINK-5131","OBJECT_ID":"2022-125AJ","EPOCH":"2024-07-16T22:49:08.326848","MEAN_MOTION":15.08852077,"ECCENTRICITY":0.0001553,"INCLINATION":53.2187,"RA_OF_ASC_NODE":30.7802,"ARG_OF_PERICENTER":111.517,"MEAN_ANOMALY":248.5988,"EPHEMERIS_TYPE":0,"CLASSIFICATION_TYPE":"U","NORAD_CAT_ID":53996,"ELEMENT_SET_NO":999,"REV_AT_EPOCH":9884,"BSTAR":0.0001848,"MEAN_MOTION_DOT":2.655e-5,"MEAN_MOTION_DDOT":0},{"OBJECT_NAME":"STARLINK-5130","OBJECT_ID":"2022-125AK","EPOCH":"2024-07-16T18:52:04.624896","MEAN_MOTION":15.08841671,"ECCENTRICITY":0.0001476,"INCLINATION":53.2179,"RA_OF_ASC_NODE":21.9085,"ARG_OF_PERICENTER":93.2344,"MEAN_ANOMALY":266.8817,"EPHEMERIS_TYPE":0,"CLASSIFICATION_TYPE":"U","NORAD_CAT_ID":53997,"ELEMENT_SET_NO":999,"REV_AT_EPOCH":9895,"BSTAR":0.00078428,"MEAN_MOTION_DOT":0.00012216,"MEAN_MOTION_DDOT":0},{"OBJECT_NAME":"STARLINK-5128","OBJECT_ID":"2022-125AL","EPOCH":"2024-07-16T22:38:30.998112","MEAN_MOTION":15.08856874,"ECCENTRICITY":0.0001514,"INCLINATION":53.2185,"RA_OF_ASC_NODE":30.7315,"ARG_OF_PERICENTER":104.6114,"MEAN_ANOMALY":255.5046,"EPHEMERIS_TYPE":0,"CLASSIFICATION_TYPE":"U","NORAD_CAT_ID":53998,"ELEMENT_SET_NO":999,"REV_AT_EPOCH":9884,"BSTAR":3.436e-5,"MEAN_MOTION_DOT":2.59e-6,"MEAN_MOTION_DDOT":0},{"OBJECT_NAME":"STARLINK-5079","OBJECT_ID":"2022-125AM","EPOCH":"2024-07-16T19:48:58.988736","MEAN_MOTION":15.08847326,"ECCENTRICITY":0.0001289,"INCLINATION":53.219,"RA_OF_ASC_NODE":31.4255,"ARG_OF_PERICENTER":83.1511,"MEAN_ANOMALY":276.9628,"EPHEMERIS_TYPE":0,"CLASSIFICATION_TYPE":"U","NORAD_CAT_ID":53999,"ELEMENT_SET_NO":999,"REV_AT_EPOCH":9875,"BSTAR":-9.7527e-6,"MEAN_MOTION_DOT":-4.43e-6,"MEAN_MOTION_DDOT":0},{"OBJECT_NAME":"STARLINK-5088","OBJECT_ID":"2022-125AN","EPOCH":"2024-07-16T18:46:45.859008","MEAN_MOTION":15.0884491,"ECCENTRICITY":0.0001411,"INCLINATION":53.2175,"RA_OF_ASC_NODE":21.8878,"ARG_OF_PERICENTER":88.0159,"MEAN_ANOMALY":272.0995,"EPHEMERIS_TYPE":0,"CLASSIFICATION_TYPE":"U","NORAD_CAT_ID":54000,"ELEMENT_SET_NO":999,"REV_AT_EPOCH":9888,"BSTAR":5.4574e-5,"MEAN_MOTION_DOT":5.81e-6,"MEAN_MOTION_DDOT":0},{"OBJECT_NAME":"STARLINK-5109","OBJECT_ID":"2022-125AQ","EPOCH":"2024-07-17T04:50:47.115744","MEAN_MOTION":15.08856898,"ECCENTRICITY":0.0001354,"INCLINATION":53.2194,"RA_OF_ASC_NODE":19.5546,"ARG_OF_PERICENTER":96.375,"MEAN_ANOMALY":263.7396,"EPHEMERIS_TYPE":0,"CLASSIFICATION_TYPE":"U","NORAD_CAT_ID":54002,"ELEMENT_SET_NO":999,"REV_AT_EPOCH":9900,"BSTAR":0.00023477,"MEAN_MOTION_DOT":3.452e-5,"MEAN_MOTION_DDOT":0},{"OBJECT_NAME":"STARLINK-5114","OBJECT_ID":"2022-125AR","EPOCH":"2024-07-16T22:43:49.344960","MEAN_MOTION":15.08857238,"ECCENTRICITY":0.0001583,"INCLINATION":53.2192,"RA_OF_ASC_NODE":30.7562,"ARG_OF_PERICENTER":103.3937,"MEAN_ANOMALY":256.7232,"EPHEMERIS_TYPE":0,"CLASSIFICATION_TYPE":"U","NORAD_CAT_ID":54003,"ELEMENT_SET_NO":999,"REV_AT_EPOCH":9882,"BSTAR":5.8434e-5,"MEAN_MOTION_DOT":6.42e-6,"MEAN_MOTION_DDOT":0},{"OBJECT_NAME":"STARLINK-5129","OBJECT_ID":"2022-125AS","EPOCH":"2024-07-16T22:27:54.400320","MEAN_MOTION":15.08856406,"ECCENTRICITY":0.0001307,"INCLINATION":53.2173,"RA_OF_ASC_NODE":30.6872,"ARG_OF_PERICENTER":110.4242,"MEAN_ANOMALY":249.689,"EPHEMERIS_TYPE":0,"CLASSIFICATION_TYPE":"U","NORAD_CAT_ID":54004,"ELEMENT_SET_NO":999,"REV_AT_EPOCH":9882,"BSTAR":0.00014698,"MEAN_MOTION_DOT":2.053e-5,"MEAN_MOTION_DDOT":0},{"OBJECT_NAME":"STARLINK-5135","OBJECT_ID":"2022-125AT","EPOCH":"2024-07-16T19:22:25.958496","MEAN_MOTION":15.08885219,"ECCENTRICITY":0.0001372,"INCLINATION":53.217,"RA_OF_ASC_NODE":31.3063,"ARG_OF_PERICENTER":105.9644,"MEAN_ANOMALY":254.15,"EPHEMERIS_TYPE":0,"CLASSIFICATION_TYPE":"U","NORAD_CAT_ID":54005,"ELEMENT_SET_NO":999,"REV_AT_EPOCH":9875,"BSTAR":-0.00041457,"MEAN_MOTION_DOT":-6.888e-5,"MEAN_MOTION_DDOT":0},{"OBJECT_NAME":"STARLINK-5096","OBJECT_ID":"2022-125AU","EPOCH":"2024-07-16T22:11:59.217216","MEAN_MOTION":15.08858929,"ECCENTRICITY":0.0001151,"INCLINATION":53.2176,"RA_OF_ASC_NODE":30.6354,"ARG_OF_PERICENTER":104.5848,"MEAN_ANOMALY":255.5272,"EPHEMERIS_TYPE":0,"CLASSIFICATION_TYPE":"U","NORAD_CAT_ID":54006,"ELEMENT_SET_NO":999,"REV_AT_EPOCH":9882,"BSTAR":0.00021155,"MEAN_MOTION_DOT":3.082e-5,"MEAN_MOTION_DDOT":0},{"OBJECT_NAME":"STARLINK-5132","OBJECT_ID":"2022-125AV","EPOCH":"2024-07-16T22:22:36.137280","MEAN_MOTION":15.08853991,"ECCENTRICITY":0.0001486,"INCLINATION":53.2189,"RA_OF_ASC_NODE":30.6634,"ARG_OF_PERICENTER":73.9383,"MEAN_ANOMALY":286.1773,"EPHEMERIS_TYPE":0,"CLASSIFICATION_TYPE":"U","NORAD_CAT_ID":54007,"ELEMENT_SET_NO":999,"REV_AT_EPOCH":9882,"BSTAR":8.1523e-5,"MEAN_MOTION_DOT":1.01e-5,"MEAN_MOTION_DDOT":0},{"OBJECT_NAME":"STARLINK-5145","OBJECT_ID":"2022-125AW","EPOCH":"2024-07-16T22:18:38.056896","MEAN_MOTION":15.08843129,"ECCENTRICITY":0.0001314,"INCLINATION":53.2183,"RA_OF_ASC_NODE":20.6741,"ARG_OF_PERICENTER":92.1976,"MEAN_ANOMALY":267.9166,"EPHEMERIS_TYPE":0,"CLASSIFICATION_TYPE":"U","NORAD_CAT_ID":54008,"ELEMENT_SET_NO":999,"REV_AT_EPOCH":9896,"BSTAR":5.4718e-5,"MEAN_MOTION_DOT":5.83e-6,"MEAN_MOTION_DDOT":0},{"OBJECT_NAME":"STARLINK-5099","OBJECT_ID":"2022-125AX","EPOCH":"2024-07-16T22:17:18.483360","MEAN_MOTION":15.08846492,"ECCENTRICITY":0.0001428,"INCLINATION":53.2167,"RA_OF_ASC_NODE":30.6445,"ARG_OF_PERICENTER":107.1896,"MEAN_ANOMALY":252.9253,"EPHEMERIS_TYPE":0,"CLASSIFICATION_TYPE":"U","NORAD_CAT_ID":54009,"ELEMENT_SET_NO":999,"REV_AT_EPOCH":9877,"BSTAR":0.00020117,"MEAN_MOTION_DOT":2.916e-5,"MEAN_MOTION_DDOT":0},{"OBJECT_NAME":"STARLINK-5127","OBJECT_ID":"2022-125AY","EPOCH":"2024-07-16T18:57:14.337792","MEAN_MOTION":15.0885768,"ECCENTRICITY":0.0001115,"INCLINATION":53.2166,"RA_OF_ASC_NODE":21.2382,"ARG_OF_PERICENTER":96.6659,"MEAN_ANOMALY":263.446,"EPHEMERIS_TYPE":0,"CLASSIFICATION_TYPE":"U","NORAD_CAT_ID":54010,"ELEMENT_SET_NO":999,"REV_AT_EPOCH":9889,"BSTAR":0.00014119,"MEAN_MOTION_DOT":1.961e-5,"MEAN_MOTION_DDOT":0},{"OBJECT_NAME":"STARLINK-5124","OBJECT_ID":"2022-125AZ","EPOCH":"2024-07-16T18:41:27.805920","MEAN_MOTION":15.08841636,"ECCENTRICITY":0.000114,"INCLINATION":53.2167,"RA_OF_ASC_NODE":21.8653,"ARG_OF_PERICENTER":86.0303,"MEAN_ANOMALY":274.0819,"EPHEMERIS_TYPE":0,"CLASSIFICATION_TYPE":"U","NORAD_CAT_ID":54011,"ELEMENT_SET_NO":999,"REV_AT_EPOCH":9893,"BSTAR":0.00030254,"MEAN_MOTION_DOT":4.531e-5,"MEAN_MOTION_DDOT":0}]
